SatCatId,ObjectName,LaunchYear,OrbitalPeriod,LaunchMass,StatusCode,Inclination,Status,UcsData,OrbitClassEstimated,LaunchSiteCountry,Owner,UseType,Purpose,LaunchVehicleClass,TLE1,TLE2,MeanMotion,Eccentricity,OrbitClass
965,OPS 6582 (TRANSIT 5B-5),1964,106.13,-1.0,UNK,90.04,Inactive,0,LEO,USA,USA,Unknown,Unknown,Unknown,1 00965U 64083D   24180.95769267  .00000070  00000+0  85886-4 0  9992,2 00965  90.0434 198.3535 0040030 215.9527 208.2722 13.56888187946203,13.56888187,0.004003,LEO
25546,BONUM-1,1998,1453.96,-1.0,-,9.37,Inactive,0,GSO,USA,Russia/USSR,Unknown,Unknown,Unknown,1 25546U 98068A   24180.89388907 -.00000115  00000+0  00000+0 0  9996,2 25546   9.3682  52.4996 0005258  22.4516 176.9678  0.99039898 93413,0.99039898,0.0005258,GSO
17359,COSMOS 1816,1987,104.76,-1.0,UNK,82.92,Inactive,0,LEO,Russia,Russia/USSR,Unknown,Unknown,Unknown,1 17359U 87009A   24181.55315275  .00000089  00000+0  77055-4 0  9992,2 17359  82.9231 197.0960 0033612  50.8813  62.5532 13.74554682876766,13.74554682,0.0033612,LEO
978,TIROS 9,1965,118.91,-1.0,-,96.41,Inactive,0,LEO,USA,USA,Unknown,Unknown,Unknown,1 00978U 65004A   24180.91408527  .00000160  00000+0  21089-3 0  9999,2 00978  96.4093 309.0736 1159119 147.8845 219.8523 12.11024312624660,12.11024312,0.1159119,LEO
25558,EUTELSAT 115 WEST A,1998,1458.68,-1.0,-,8.71,Inactive,0,GSO,French Guiana,EUTELSAT,Unknown,Unknown,Unknown,1 25558U 98070A   24180.90579156 -.00000081  00000+0  00000+0 0  9994,2 25558   8.7051  58.4948 0007064  48.1773 240.5897  0.98719917 93371,0.98719917,0.0007064,GSO
17369,COSMOS 1818,1987,100.58,-1.0,UNK,65.01,Inactive,0,LEO,Kazakhstan,Russia/USSR,Unknown,Unknown,Unknown,1 17369U 87011A   24180.94261710  .00000054  00000+0  57629-4 0  9999,2 17369  65.0113  99.7200 0022139 268.8861  90.9687 14.31663752  5964,14.31663752,0.0022139,LEO
25567,NADEZHDA 5,1998,104.96,-1.0,-,82.95,Inactive,0,LEO,Russia,Russia/USSR,Unknown,Unknown,Unknown,1 25567U 98072A   24180.77056839  .00000079  00000+0  70620-4 0  9995,2 25567  82.9474 257.0535 0024584 303.1655 176.9449 13.71975314279159,13.71975314,0.0024584,LEO
25568,ASTRID 2,1998,104.89,-1.0,UNK,82.95,Inactive,0,LEO,Russia,Sweden,Unknown,Unknown,Unknown,1 25568U 98072B   24181.48322726  .00000221  00000+0  22383-3 0  9997,2 25568  82.9488 253.2379 0023434 281.1937  89.4327 13.72883794279884,13.72883794,0.0023434,LEO
1002,LES-1,1965,145.7,-1.0,UNK,32.15,Inactive,0,MEO,USA,USA,Unknown,Unknown,Unknown,1 01002U 65008C   24180.08350490  .00000011  00000+0  38551-3 0  9992,2 01002  32.1469 308.2364 0014295 196.9461 163.0559  9.88353937145041,9.88353937,0.0014295,MEO
25585,INTELSAT 6B (IS-6B),1998,1452.32,-1.0,-,11.19,Inactive,0,GSO,French Guiana,USA,Unknown,Unknown,Ariane,1 25585U 98075A   24180.90863458 -.00000146  00000+0  00000+0 0  9992,2 25585  11.1935  35.9800 0017930 140.1305 173.3437  0.99152200 92867,0.991522,0.001793,GSO
25590,COSMOS 2361,1998,104.87,-1.0,-,82.93,Inactive,0,LEO,Russia,Russia/USSR,Unknown,Unknown,Unknown,1 25590U 98076A   24181.55907179  .00000106  00000+0  98368-4 0  9994,2 25590  82.9342  16.8300 0030337 304.1833  64.8731 13.73122936278516,13.73122936,0.0030337,LEO
25593,COSMOS 2364 [GLONASS],1998,675.73,-1.0,-,63.87,Inactive,0,MEO,Kazakhstan,Russia/USSR,Unknown,Unknown,Unknown,1 25593U 98077A   24180.67122484 -.00000030  00000+0  00000+0 0  9996,2 25593  63.8737  85.4769 0029476  53.5337 167.0090  2.13102749198340,2.13102749,0.0029476,MEO
25594,COSMOS 2363 [GLONASS],1998,675.73,-1.0,-,63.86,Inactive,0,MEO,Kazakhstan,Russia/USSR,Unknown,Unknown,Unknown,1 25594U 98077B   24172.55991281 -.00000023  00000+0  00000+0 0  9996,2 25594  63.8645  85.6959 0026631  44.9453 139.3272  2.13103705198252,2.13103705,0.0026631,MEO
25595,COSMOS 2362 [GLONASS],1998,675.73,-1.0,-,63.88,Inactive,0,MEO,Kazakhstan,Russia/USSR,Unknown,Unknown,Unknown,1 25595U 98077C   24181.32440370 -.00000038  00000+0  00000+0 0  9996,2 25595  63.8794  85.5100 0006723  57.3554  60.4336  2.13103714198441,2.13103714,0.0006723,MEO
25615,USA 141 (ATEX),1998,99.58,-1.0,-,84.99,Inactive,0,LEO,USA,USA,Unknown,Unknown,Unknown,1 25615U 98055C   24181.45048734  .00000775  00000+0  21135-3 0  9990,2 25615  84.9851  73.7766 0009360  43.7936 316.4005 14.46141038270259,14.46141038,0.000936,LEO
25621,GLOBALSTAR M023,1999,114.06,-1.0,-,52.01,Inactive,0,LEO,Kazakhstan,Globalstar,Unknown,Unknown,Unknown,1 25621U 99004A   24181.56218581 -.00000005  00000+0  55275-3 0  9992,2 25621  52.0123  47.1623 0010962  69.2483 299.0029 12.62460614171286,12.62460614,0.0010962,LEO
25622,GLOBALSTAR M040,1999,114.11,-1.0,-,51.99,Inactive,0,LEO,Kazakhstan,Globalstar,Unknown,Unknown,Unknown,1 25622U 99004B   24180.94591872 -.00000131  00000+0 -15562-3 0  9997,2 25622  51.9931  52.6693 0001142  27.8198  75.7283 12.61975997170658,12.61975997,0.0001142,LEO
25623,GLOBALSTAR M036,1999,121.36,-1.0,-,52.0,Inactive,0,LEO,Kazakhstan,Globalstar,Unknown,Unknown,Unknown,1 25623U 99004C   24181.53301741 -.00000020  00000+0  91192-3 0  9997,2 25623  51.9970  89.8174 0011619  91.7838  79.1596 11.86568695137094,11.86568695,0.0011619,LEO
25624,GLOBALSTAR M038,1999,116.84,-1.0,-,52.0,Inactive,0,LEO,Kazakhstan,Globalstar,Unknown,Unknown,Unknown,1 25624U 99004D   24180.92869931 -.00000068  00000+0  22163-3 0  9994,2 25624  51.9994   8.8950 0002531  54.3163  45.9675 12.32502000158815,12.32502,0.0002531,LEO
25626,GALAXY 26 (G-26),1999,1454.54,-1.0,-,10.1,Inactive,0,GSO,Kazakhstan,USA,Unknown,Unknown,Unknown,1 25626U 99005A   24181.46089455 -.00000232  00000+0  00000+0 0  9997,2 25626  10.1047  53.5255 0005316  78.8576 296.8194  0.99000410 92471,0.9900041,0.0005316,GSO
25630,JCSAT-4A,1999,1457.36,-1.0,-,7.99,Inactive,0,GSO,USA,Japan,Unknown,Unknown,Unknown,1 25630U 99006A   24180.72363292  .00000046  00000+0  00000+0 0  9997,2 25630   7.9905  62.8077 0026636  28.6659 322.2472  0.98808430  9109,0.9880843,0.0026636,GSO
25634,ARGOS,1999,101.43,-1.0,UNK,98.42,Inactive,0,LEO,USA,USA,Unknown,Unknown,Unknown,1 25634U 99008A   24180.90770996  .00000172  00000+0  10064-3 0  9991,2 25634  98.4186 167.1539 0009523 329.8646  30.1982 14.19677598312373,14.19677598,0.0009523,LEO
25635,ORSTED,1999,99.31,-1.0,-,96.47,Inactive,0,LEO,USA,Denmark,Unknown,Unknown,Unknown,1 25635U 99008B   24180.91824307  .00000896  00000+0  21389-3 0  9994,2 25635  96.4697 243.0680 0134083 329.7160  29.6338 14.49990785337802,14.49990785,0.0134083,LEO
25636,SUNSAT (SO-35),1999,99.61,-1.0,-,96.45,Inactive,0,LEO,USA,South Africa,Unknown,Unknown,Unknown,1 25636U 99008C   24180.69129073  .00000698  00000+0  18093-3 0  9996,2 25636  96.4538 215.9936 0145413  92.6617 269.1234 14.45583978335397,14.45583978,0.0145413,LEO
25638,BADR-3 (ARABSAT-3A),1999,1437.41,-1.0,-,10.76,Inactive,0,GSO,French Guiana,Arabsat,Unknown,Unknown,Unknown,1 25638U 99009A   24181.46333271 -.00000192  00000+0  00000+0 0  9997,2 25638  10.7611  37.8333 0005203  25.8891 176.1319  1.00180115 92806,1.00180115,0.0005203,GSO
25642,RADUGA-1 4,1999,1437.08,-1.0,-,15.43,Inactive,0,GSO,Kazakhstan,Russia/USSR,Unknown,Unknown,Unknown,1 25642U 99010A   24180.08730035  .00000060  00000+0  00000+0 0  9993,2 25642  15.4347   7.5811 0002141 238.3891 116.8569  1.00203304 92739,1.00203304,0.0002141,GSO
14867,COSMOS 1546,1984,1436.22,-1.0,UNK,10.06,Inactive,0,GSO,Kazakhstan,Russia/USSR,Unknown,Unknown,Unknown,1 14867U 84031A   24180.90813104 -.00000050  00000+0  00000+0 0  9997,2 14867  10.0618 316.4352 0021485   1.8970 356.2555  1.00263061 40164,1.00263061,0.0021485,GSO
25649,GLOBALSTAR M022,1999,119.75,-1.0,-,52.0,Inactive,0,LEO,Kazakhstan,Globalstar,Unknown,Unknown,Unknown,1 25649U 99012A   24181.13925617 -.00000045  00000+0  49971-3 0  9999,2 25649  52.0009 170.6335 0002343 193.4095 245.1759 12.02484651133982,12.02484651,0.0002343,LEO
25650,GLOBALSTAR M041,1999,120.34,-1.0,-,52.0,Inactive,0,LEO,Kazakhstan,Globalstar,Unknown,Unknown,Unknown,1 25650U 99012B   24180.89604299 -.00000143  00000+0 -75032-3 0  9990,2 25650  52.0040  41.9735 0002605   5.4878 354.5987 11.96656070136232,11.9665607,0.0002605,LEO
25651,GLOBALSTAR M046,1999,119.07,-1.0,-,52.0,Inactive,0,LEO,Kazakhstan,Globalstar,Unknown,Unknown,Unknown,1 25651U 99012C   24180.63824248  .00000039  00000+0  14082-2 0  9990,2 25651  52.0036 135.0350 0002192 277.3934 253.5624 12.09393206141236,12.09393206,0.0002192,LEO
25652,GLOBALSTAR M037,1999,114.07,450.0,-,52.0,Inactive,1,LEO,Kazakhstan,Globalstar,Commercial,Communications,Soyuz,1 25652U 99012D   24181.22461831 -.00000052  00000+0  28977-3 0  9997,2 25652  51.9972 178.9392 0001802 125.3150 317.0465 12.62409789166740,12.62409789,0.0001802,LEO
25657,ASIASAT 3S,1999,1456.42,-1.0,-,8.14,Inactive,0,GSO,Kazakhstan,ASIASAT,Unknown,Unknown,Unknown,1 25657U 99013A   24180.82709178 -.00000004  00000+0  00000+0 0  9997,2 25657   8.1386  61.6335 0006302  31.1203 158.8887  0.98872273 92482,0.98872273,0.0006302,GSO
25661,SEA LAUNCH DEMO,1999,645.01,-1.0,UNK,0.99,Inactive,0,MEO,Sea Launch Platform,Sea Launch,Unknown,Unknown,Unknown,1 25661U 99014A   24181.35107128 -.00000015  00000+0  11454-3 0  9990,2 25661   0.9905 262.8335 7149828 124.6077 356.7971  2.23252664206086,2.23252664,0.7149828,MEO
25666,INSAT-2E (APR-1),1999,1444.87,-1.0,-,9.97,Inactive,0,GSO,French Guiana,India,Unknown,Unknown,Unknown,1 25666U 99016A   24180.85341334 -.00000172  00000+0  00000+0 0  9995,2 25666   9.9711  46.0089 0006729 293.4630  53.5380  0.99662786 44276,0.99662786,0.0006729,GSO
25669,USA 142 (DSP 19),1999,618.04,-1.0,-,29.29,Inactive,0,MEO,USA,USA,Unknown,Unknown,Unknown,1 25669U 99017A   24181.42822697 -.00000188  00000+0  17337-3 0  9991,2 25669  29.2886 313.6117 7088451 103.3729 338.3244  2.32995578  1520,2.32995578,0.7088451,MEO
25673,EUTELSAT 48C,1999,1463.0,-1.0,-,8.94,Inactive,0,GSO,USA,EUTELSAT,Unknown,Unknown,Unknown,1 25673U 99018A   24180.69216861  .00000014  00000+0  00000+0 0  9997,2 25673   8.9371  57.1148 0006348  67.9394 119.0549  0.98428153 34486,0.98428153,0.0006348,GSO
